NORAD_CAT_ID,OBJECT_NAME,OBJECT_TYPE,EPOCH,MEAN_MOTION,ECCENTRICITY,INCLINATION,RA_OF_ASC_NODE,ARG_OF_PERICENTER,MEAN_ANOMALY,BSTAR,MEAN_MOTION_DOT,MEAN_MOTION_DDOT,TLE_LINE0,TLE_LINE1,TLE_LINE2,SEMIMAJOR_AXIS,PERIOD,APOGEE,PERIGEE,DECAYED
56451.0,STARLINK-5985,PAYLOAD,2024-04-22 22:38:29,14.9829766,0.0002283,70.0004,73.6386,262.7996,97.2904,0.00055294,6.505e-05,0.0,0 STARLINK-5985,1 56451U 23064D   24113.94339776  .00006505  00000-0  55294-3 0  9999,2 56451  70.0004  73.6386 0002283 262.7996  97.2904 14.98297660 52520,6950.293,96.109,573.745,570.571,0.0
56451.0,STARLINK-5985,PAYLOAD,2024-04-23 05:03:02,14.98298072,0.000248,69.9999,72.965,261.8127,98.2751,0.00049621,5.828e-05,0.0,0 STARLINK-5985,1 56451U 23064D   24114.21044312  .00005828  00000-0  49621-3 0  9993,2 56451  69.9999  72.9650 0002480 261.8127  98.2751 14.98298072 52924,6950.292,96.109,573.88,570.433,0.0
56451.0,STARLINK-5985,PAYLOAD,2024-04-23 06:39:10,14.98301297,0.0002324,69.9996,72.7964,262.8179,97.2716,0.0004601,5.397e-05,0.0,0 STARLINK-5985,1 56451U 23064D   24114.27720342  .00005397  00000-0  46010-3 0  9993,2 56451  69.9996  72.7964 0002324 262.8179  97.2716 14.98301297 52577,6950.282,96.109,573.762,570.531,0.0
56451.0,STARLINK-5985,PAYLOAD,2024-04-23 21:04:23,14.98325363,0.0002143,70.0014,71.2831,245.7651,114.3284,-0.00030806,-3.766e-05,0.0,0 STARLINK-5985,1 56451U 23064D   24114.87805033 -.00003766  00000-0 -30806-3 0  9996,2 56451  70.0014  71.2831 0002143 245.7651 114.3284 14.98325363 53024,6950.207,96.107,573.562,570.583,0.0
56451.0,STARLINK-5985,PAYLOAD,2024-04-23 22:40:31,14.98327813,0.000248,70.0005,71.1157,249.8226,110.2666,-0.00035934,-4.377e-05,0.0,0 STARLINK-5985,1 56451U 23064D   24114.94481075 -.00004377  00000-0 -35934-3 0  9996,2 56451  70.0005  71.1157 0002480 249.8226 110.2666 14.98327813 52672,6950.2,96.107,573.788,570.341,0.0
56451.0,STARLINK-5985,PAYLOAD,2024-04-24 06:41:11,14.9832958,0.0002417,70.0008,70.2736,250.3261,109.7637,-0.00028944,-3.545e-05,0.0,0 STARLINK-5985,1 56451U 23064D   24115.27860839 -.00003545  00000-0 -28944-3 0  9991,2 56451  70.0008  70.2736 0002417 250.3261 109.7637 14.98329580 52724,6950.194,96.107,573.739,570.379,0.0
56451.0,STARLINK-5985,PAYLOAD,2024-04-24 22:42:31,14.98331247,0.0003053,69.9992,68.5884,263.7761,96.305,0.00014914,1.687e-05,0.0,0 STARLINK-5985,1 56451U 23064D   24115.94619423  .00001687  00000-0  14914-3 0  9991,2 56451  69.9992  68.5884 0003053 263.7761  96.3050 14.98331247 52821,6950.189,96.107,574.176,569.932,0.0
56451.0,STARLINK-5985,PAYLOAD,2024-04-25 05:07:02,14.98341422,0.0002604,70.0006,67.916,251.7858,108.3018,0.00031357,3.651e-05,0.0,0 STARLINK-5985,1 56451U 23064D   24116.21322393  .00003651  00000-0  31357-3 0  9992,2 56451  70.0006  67.9160 0002604 251.7858 108.3018 14.98341422 53224,6950.158,96.106,573.832,570.213,0.0
56451.0,STARLINK-5985,PAYLOAD,2024-04-25 06:43:10,14.98345838,0.0002736,70.0002,67.7471,258.6512,101.434,0.00031759,3.7e-05,0.0,0 STARLINK-5985,1 56451U 23064D   24116.27998106  .00003700  00000-0  31759-3 0  9990,2 56451  70.0002  67.7471 0002736 258.6512 101.4340 14.98345838 52879,6950.144,96.106,573.91,570.107,0.0
56451.0,STARLINK-5985,PAYLOAD,2024-04-25 21:08:23,14.98333725,0.0001905,70.0033,66.2327,265.8753,94.2188,0.00032218,3.754e-05,0.0,0 STARLINK-5985,1 56451U 23064D   24116.88083036  .00003754  00000-0  32218-3 0  9994,2 56451  70.0033  66.2327 0001905 265.8753  94.2188 14.98333725 53323,6950.181,96.107,573.37,570.722,0.0
56451.0,STARLINK-5985,PAYLOAD,2024-04-25 22:44:31,14.98333541,0.0002141,70.0027,66.0648,261.7504,98.3412,0.00025716,2.977e-05,0.0,0 STARLINK-5985,1 56451U 23064D   24116.94759102  .00002977  00000-0  25716-3 0  9996,2 56451  70.0027  66.0648 0002141 261.7504  98.3412 14.98333541 52973,6950.182,96.107,573.535,570.559,0.0
56451.0,STARLINK-5985,PAYLOAD,2024-04-26 05:09:04,14.98326388,0.0002331,70.0022,65.3937,246.9238,113.1676,0.00018777,2.148e-05,0.0,0 STARLINK-5985,1 56451U 23064D   24117.21463569  .00002148  00000-0  18777-3 0  9995,2 56451  70.0022  65.3937 0002331 246.9238 113.1676 14.98326388 53375,6950.204,96.107,573.689,570.449,0.0
56451.0,STARLINK-5985,PAYLOAD,2024-04-26 13:09:44,14.98333228,0.0002447,70.001,64.5483,271.7512,88.3367,0.00010305,1.137e-05,0.0,0 STARLINK-5985,1 56451U 23064D   24117.54843366  .00001137  00000-0  10305-3 0  9994,2 56451  70.0010  64.5483 0002447 271.7512  88.3367 14.98333228 53065,6950.183,96.107,573.749,570.347,0.0
56451.0,STARLINK-5985,PAYLOAD,2024-04-27 03:34:56,14.98334233,0.000243,70.0013,63.0332,270.1003,89.9878,0.00020646,2.372e-05,0.0,0 STARLINK-5985,1 56451U 23064D   24118.14926578  .00002372  00000-0  20646-3 0  9999,2 56451  70.0013  63.0332 0002430 270.1003  89.9878 14.98334233 53516,6950.18,96.107,573.734,570.356,0.0
56451.0,STARLINK-5985,PAYLOAD,2024-04-27 13:11:44,14.98345372,0.0001929,70.0026,62.0216,283.8034,76.291,-9.7251e-05,-1.253e-05,0.0,0 STARLINK-5985,1 56451U 23064D   24118.54982288 -.00001253  00000-0 -97251-4 0  9999,2 56451  70.0026  62.0216 0001929 283.8034  76.2910 14.98345372 53216,6950.145,96.106,573.351,570.67,0.0
56451.0,STARLINK-5985,PAYLOAD,2024-04-27 21:12:25,14.98329998,0.0001945,70.0014,61.1846,259.8429,100.2511,-1.7314e-05,-2.99e-06,0.0,0 STARLINK-5985,1 56451U 23064D   24118.88362890 -.00000299  00000-0 -17314-4 0  9998,2 56451  70.0014  61.1846 0001945 259.8429 100.2511 14.98329998 53267,6950.193,96.107,573.41,570.706,0.0
56451.0,STARLINK-5985,PAYLOAD,2024-04-28 03:36:58,14.98318631,0.0002538,70.0012,60.5115,258.9457,101.1416,-0.00014483,-1.82e-05,0.0,0 STARLINK-5985,1 56451U 23064D   24119.15067915 -.00001820  00000-0 -14483-3 0  9993,2 56451  70.0012  60.5115 0002538 258.9457 101.1416 14.98318631 53667,6950.228,96.108,573.857,570.329,0.0
56451.0,STARLINK-5985,PAYLOAD,2024-04-28 13:13:46,14.98328481,0.0002825,70.0007,59.5006,263.9382,96.1456,-0.00010932,-1.397e-05,0.0,0 STARLINK-5985,1 56451U 23064D   24119.55123257 -.00001397  00000-0 -10932-3 0  9993,2 56451  70.0007  59.5006 0002825 263.9382  96.1456 14.98328481 53728,6950.198,96.107,574.026,570.099,0.0
56451.0,STARLINK-5985,PAYLOAD,2024-04-28 22:50:34,14.98332359,0.000271,70.001,58.4906,265.6344,94.4505,3.0452e-07,-8.9e-07,0.0,0 STARLINK-5985,1 56451U 23064D   24119.95178827 -.00000089  00000-0  30452-6 0  9998,2 56451  70.0010  58.4906 0002710 265.6344  94.4505 14.98332359 53421,6950.186,96.107,573.934,570.167,0.0
56451.0,STARLINK-5985,PAYLOAD,2024-04-29 05:15:06,14.98334396,0.0002675,70.0009,57.8177,260.1114,99.9744,7.0309e-06,-9e-08,0.0,0 STARLINK-5985,1 56451U 23064D   24120.21882654 -.00000009  00000-0  70309-5 0  9995,2 56451  70.0009  57.8177 0002675 260.1114  99.9744 14.98334396 53829,6950.179,96.107,573.903,570.185,0.0
56451.0,STARLINK-5985,PAYLOAD,2024-04-29 13:15:46,14.98334467,0.0003051,70.0008,56.9756,256.4226,103.6593,-4.0327e-05,-5.74e-06,0.0,0 STARLINK-5985,1 56451U 23064D   24120.55262577 -.00000574  00000-0 -40327-4 0  9992,2 56451  70.0008  56.9756 0003051 256.4226 103.6593 14.98334467 53512,6950.179,96.107,574.165,569.924,0.0
56451.0,STARLINK-5985,PAYLOAD,2024-04-29 21:16:27,14.98322492,0.0003011,70.0008,56.1339,268.1945,91.8869,0.0002315,2.67e-05,0.0,0 STARLINK-5985,1 56451U 23064D   24120.88642834  .00002670  00000-0  23150-3 0  9997,2 56451  70.0008  56.1339 0003011 268.1945  91.8869 14.98322492 53929,6950.216,96.107,574.174,569.988,0.0
56451.0,STARLINK-5985,PAYLOAD,2024-04-30 13:17:48,14.98329138,0.0003056,70.0008,54.4495,266.2948,93.7861,0.00012978,1.456e-05,0.0,0 STARLINK-5985,1 56451U 23064D   24121.55402875  .00001456  00000-0  12978-3 0  9998,2 56451  70.0008  54.4495 0003056 266.2948  93.7861 14.98329138 53662,6950.196,96.107,574.185,569.937,0.0
56451.0,STARLINK-5985,PAYLOAD,2024-04-30 21:18:28,14.98329668,0.0003026,70.0008,53.608,266.0109,94.0704,6.0868e-05,6.33e-06,0.0,0 STARLINK-5985,1 56451U 23064D   24121.88783005  .00000633  00000-0  60868-4 0  9999,2 56451  70.0008  53.6080 0003026 266.0109  94.0704 14.98329668 54071,6950.194,96.107,574.162,569.956,0.0
56451.0,STARLINK-5985,PAYLOAD,2024-04-30 22:54:36,14.98329201,0.0003032,70.0008,53.4397,266.0521,94.0291,5.4334e-05,5.55e-06,0.0,0 STARLINK-5985,1 56451U 23064D   24121.95459049  .00000555  00000-0  54334-4 0  9999,2 56451  70.0008  53.4397 0003032 266.0521  94.0291 14.98329201 53720,6950.195,96.107,574.168,569.953,0.0
56451.0,STARLINK-5985,PAYLOAD,2024-05-01 05:19:08,14.98335628,0.000302,70.0008,52.7668,266.7692,93.3122,7.2589e-05,7.73e-06,0.0,0 STARLINK-5985,1 56451U 23064D   24122.22162564  .00000773  00000-0  72589-4 0  9997,2 56451  70.0008  52.7668 0003020 266.7692  93.3122 14.98335628 53765,6950.175,96.107,574.139,569.942,0.0
56451.0,STARLINK-5985,PAYLOAD,2024-05-02 05:21:08,14.98338048,0.000302,70.0007,50.2425,266.6545,93.4268,6.5261e-05,6.86e-06,0.0,0 STARLINK-5985,1 56451U 23064D   24123.22302066  .00000686  00000-0  65261-4 0  9993,2 56451  70.0007  50.2425 0003020 266.6545  93.4268 14.98338048 54272,6950.168,96.106,574.132,569.934,0.0
56451.0,STARLINK-5985,PAYLOAD,2024-05-02 21:22:29,14.98331551,0.0002952,70.0007,48.559,267.9347,92.1473,5.075e-05,5.13e-06,0.0,0 STARLINK-5985,1 56451U 23064D   24123.89062327  .00000513  00000-0  50750-4 0  9995,2 56451  70.0007  48.5590 0002952 267.9347  92.1473 14.98331551 54379,6950.188,96.107,574.105,570.001,0.0
56451.0,STARLINK-5985,PAYLOAD,2024-05-03 03:47:01,14.98340141,0.0002794,70.0011,47.8868,265.3099,94.7741,0.00013144,1.476e-05,0.0,0 STARLINK-5985,1 56451U 23064D   24124.15765495  .00001476  00000-0  13144-3 0  9995,2 56451  70.0011  47.8868 0002794 265.3099  94.7741 14.98340141 54410,6950.162,96.106,573.968,570.085,0.0
56451.0,STARLINK-5985,PAYLOAD,2024-05-03 11:47:42,14.98333129,0.0002727,70.0015,47.044,267.1113,92.9734,2.6626e-05,2.25e-06,0.0,0 STARLINK-5985,1 56451U 23064D   24124.49146093  .00000225  00000-0  26626-4 0  9990,2 56451  70.0015  47.0440 0002727 267.1113  92.9734 14.98333129 54460,6950.183,96.107,573.944,570.153,0.0
